STARLINK-35031          
1 65404U 25192A   25272.41094555  .00068919  00000+0  17165-2 0  9993
2 65404  53.1602 272.7191 0001472  87.7969 272.3205 15.39635969  4536
STARLINK-34830          
1 65405U 25192B   25269.41798895 -.00143972  00000+0 -26753-2 0  9996
2 65405  53.1579 286.0202 0002465  56.5721 303.5523 15.48802735  4092
STARLINK-35036          
1 65406U 25192C   25272.23003522  .00066749  00000+0  16639-2 0  9993
2 65406  53.1594 273.0036 0001406  49.7340 310.3788 15.39623682  4514
STARLINK-35035          
1 65407U 25192D   25272.42013609  .00068683  00000+0  17114-2 0  9990
2 65407  53.1598 272.0549 0001345  76.6819 283.4336 15.39624554  4540
STARLINK-35008          
1 65408U 25192E   25272.28566242  .00074312  00000+0  18501-2 0  9998
2 65408  53.1597 272.6368 0001317  80.6626 279.4528 15.39613528  4520
STARLINK-35022          
1 65409U 25192F   25273.00002315  .00066136  00000+0  16529-2 0  9999
2 65409  53.1604 269.1129 0001332  75.5049   3.5851 15.39549979  5945
STARLINK-35024          
1 65410U 25192G   25273.00002315  .00065893  00000+0  16467-2 0  9991
2 65410  53.1604 269.1644 0001333 106.0671 307.2967 15.39553348  5948
STARLINK-34983          
1 65411U 25192H   25273.00002315  .00074861  00000+0  18651-2 0  9994
2 65411  53.1600 269.0118 0001279 123.2218   7.1857 15.39588024  5940
STARLINK-34992          
1 65412U 25192J   25273.00002315  .00075485  00000+0  18824-2 0  9990
2 65412  53.1591 268.9593 0001158  91.1612  65.1504 15.39556544  5947
STARLINK-35003          
1 65413U 25192K   25272.57579243  .01167537  00000+0  19726-1 0  9993
2 65413  53.1586 270.8853 0004699  88.2344 271.9203 15.48454699  4574
STARLINK-34411          
1 65414U 25192L   25273.00002315 -.01592784  00000+0 -37470-1 0  9998
2 65414  53.1590 268.8827 0001301  77.9629 117.0674 15.44628696  5946
STARLINK-34238          
1 65415U 25192M   25272.63985245 -.00134974  00000+0 -24493-2 0  9993
2 65415  53.1584 270.5737 0001841 192.0853 168.0112 15.49440448  4581
STARLINK-34855          
1 65416U 25192N   25271.99478726  .00136588  00000+0  24460-2 0  9998
2 65416  53.1587 273.6559 0004755 296.9949  63.0574 15.49011073  4481
STARLINK-34255          
1 65417U 25192P   25272.96171870  .00142099  00000+0  25078-2 0  9997
2 65417  53.1587 269.0302 0001035  96.9337 263.1790 15.49411177  4633
STARLINK-34997          
1 65418U 25192Q   25272.28997594  .00086253  00000+0  21431-2 0  9990
2 65418  53.1599 272.6613 0001571  81.0725 279.0457 15.39604562  4528
STARLINK-35085          
1 65419U 25192R   25272.28533130  .00070880  00000+0  17647-2 0  9996
2 65419  53.1598 272.6363 0001297  86.8686 273.2467 15.39635160  4529
STARLINK-35138          
1 65420U 25192S   25273.00002315  .00074233  00000+0  18517-2 0  9998
2 65420  53.1601 269.1586 0001422  91.8709 323.2995 15.39555127  5949
STARLINK-35146          
1 65421U 25192T   25273.00002315 -.00046912  00000+0 -11693-2 0  9992
2 65421  53.1604 269.1062 0001474  95.3501 345.5498 15.39638047  5946
STARLINK-35074          
1 65422U 25192U   25272.37909231  .00140075  00000+0  24767-2 0  9994
2 65422  53.1590 271.7894 0001377  79.1269 280.9895 15.49366372  4544
STARLINK-34837          
1 65423U 25192V   25272.41051711  .00061047  00000+0  15230-2 0  9997
2 65423  53.1592 271.9893 0001621  86.3029 273.8161 15.39638950  4544
STARLINK-34670          
1 65424U 25192W   25273.00002315  .00080507  00000+0  20028-2 0  9993
2 65424  53.1604 269.0545 0001845 106.9554 359.6924 15.39598955  5946
STARLINK-35095          
1 65425U 25192X   25273.00002315  .00088925  00000+0  22131-2 0  9993
2 65425  53.1593 268.9014 0001009  69.4704 114.4203 15.39539133  5945
STARLINK-34883          
1 65426U 25192Y   25273.00002315  .00065190  00000+0  16279-2 0  9999
2 65426  53.1595 268.9524 0001661  87.2748  70.8114 15.39580255  5941
STARLINK-34916          
1 65427U 25192Z   25273.00002315  .00110346  00000+0  27332-2 0  9996
2 65427  53.1600 269.0039 0002004 102.1700  30.2206 15.39571844  5945
STARLINK-35004          
1 65428U 25192AA  25272.37637729  .00089135  00000+0  16211-2 0  9994
2 65428  53.1580 271.7712 0003016  65.0122 295.1200 15.48798968  4549
STARLINK-35014          
1 65429U 25192AB  25273.00002315 -.01574585  00000+0 -37401-1 0  9997
2 65429  53.1590 268.8202 0001550  96.8732 127.2901 15.44307945  5947
STARLINK-35025          
1 65430U 25192AC  25273.00002315 -.01301722  00000+0 -33572-1 0  9995
2 65430  53.1589 268.8546 0001205  85.6674 121.3297 15.41798551  5943
STARLINK-35034          
1 65431U 25192AD  25272.95753829  .00123692  00000+0  22737-2 0  9999
2 65431  53.1576 268.9979 0006015 171.7755 188.3353 15.48313750  4634
STARLINK-35142          
1 65434U 25194A   25272.50411143  .00095747  00000+0  24239-2 0  9993
2 65434  97.6024 124.2499 0002039  68.3989 291.7473 15.39377334  5317
STARLINK-34978          
1 65435U 25194B   25273.00002315 -.01804743  00000+0 -49168-1 0  9991
2 65435  97.6034 125.2880 0001983 112.0483 217.6455 15.40635938  4682
STARLINK-35043          
1 65436U 25194C   25273.00002315 -.00852041  00000+0 -34964-2 0  9994
2 65436  97.5907 126.1691 0001540 123.1689  45.7803 15.87870442  4747
STARLINK-35080          
1 65437U 25194D   25273.00002315 -.00238754  00000+0 -62847-2 0  9995
2 65437  97.6032 125.2691 0001732  97.1719 189.1939 15.39470796  4686
STARLINK-35068          
1 65438U 25194E   25272.54794284  .00115391  00000+0  20896-2 0  9994
2 65438  97.6031 124.8239 0000803  61.7920 298.3412 15.49225507  5351
STARLINK-35045          
1 65439U 25194F   25273.00002315  .00139799  00000+0  35352-2 0  9995
2 65439  97.6030 125.2489 0001669  93.4849 147.0091 15.39226106  4689
STARLINK-35050          
1 65440U 25194G   25272.15903707  .00002415  00000+0  46279-4 0  9993
2 65440  97.6030 124.4181 0003888  61.3114 298.8527 15.49130389  5290
STARLINK-35065          
1 65441U 25194H   25272.54690967  .00154537  00000+0  27826-2 0  9996
2 65441  97.6029 124.8261 0000636  52.8262 307.3046 15.49239222  5354
STARLINK-34679          
1 65442U 25194J   25273.00002315  .00139892  00000+0  35351-2 0  9992
2 65442  97.6030 125.2780 0001698 107.2908 201.0826 15.39246910  4748
STARLINK-34678          
1 65443U 25194K   25272.15763527  .00095858  00000+0  17426-2 0  9993
2 65443  97.6029 124.4205 0001794  89.1991 270.9465 15.49190323  5299
STARLINK-35049          
1 65444U 25194L   25273.00002315  .00130794  00000+0  33097-2 0  9991
2 65444  97.6029 125.2281 0001743  92.5535 101.9287 15.39243044  4684
STARLINK-35029          
1 65445U 25194M   25273.00002315  .00139889  00000+0  35364-2 0  9995
2 65445  97.6029 125.2393 0002378  72.0036 146.4716 15.39233775  4741
STARLINK-34991          
1 65446U 25194N   25273.00002315  .00137734  00000+0  34835-2 0  9995
2 65446  97.6030 125.2594 0002013  96.9482 167.5394 15.39229764  4696
STARLINK-34920          
1 65447U 25194P   25273.00002315 -.02078734  00000+0 -57123-1 0  9998
2 65447  97.6034 125.2981 0002544  98.6692 252.8962 15.40863979  4695
STARLINK-35030          
1 65448U 25194Q   25272.57888350  .00076483  00000+0  19430-2 0  9996
2 65448  97.6027 124.7819 0001361  84.4432 275.6969 15.39355114  5352
STARLINK-35009          
1 65449U 25194R   25272.93213025 -.00415043  00000+0 -85766-2 0  9994
2 65449  97.6030 125.2379 0004258  39.0448 321.1108 15.47308531  5414
STARLINK-34970          
1 65450U 25194S   25272.86641868  .00108806  00000+0  19711-2 0  9999
2 65450  97.6030 125.1715 0001620  98.7536 261.3898 15.49240619  5403
STARLINK-35039          
1 65451U 25194T   25272.57274695  .00085315  00000+0  21648-2 0  9999
2 65451  97.6031 124.7911 0001734  85.5049 274.6395 15.39351764  5353
STARLINK-35084          
1 65452U 25194U   25272.54277351  .00121834  00000+0  22042-2 0  9995
2 65452  97.6030 124.8326 0000863  62.1387 297.9951 15.49228127  5355
STARLINK-34988          
1 65453U 25194V   25272.91670139 -.00804146  00000+0 -31254-2 0  9999
2 65453  97.5829 126.1621 0001994  87.8040 162.4518 15.88848203  4732
STARLINK-35059          
1 65454U 25194W   25272.91670139 -.01009107  00000+0 -67264-2 0  9995
2 65454  97.5928 125.8955 0001692 108.8566 261.0047 15.77973198  5498
STARLINK-34728          
1 65455U 25194X   25272.54139542  .00097325  00000+0  17664-2 0  9998
2 65455  97.6026 124.8355 0001525  85.7217 274.4208 15.49231539  5350
STARLINK-35005          
1 65456U 25194Y   25271.50827056  .00158800  00000+0  28549-2 0  9998
2 65456  97.6025 123.7464 0001767 100.2301 259.9149 15.49267626  5194
STARLINK-35076          
1 65457U 25194Z   25272.54105048  .00097031  00000+0  17611-2 0  9990
2 65457  97.6025 124.8360 0001387  67.3681 292.7716 15.49232725  5359
STARLINK-34784          
1 65458U 25195A   25272.91670139  .00117735  00000+0  29160-2 0  9997
2 65458  53.1598 288.5519 0001443  81.9150  75.5911 15.39537715  4698
STARLINK-34867          
1 65459U 25195B   25272.91670139 -.01556920  00000+0 -35184-1 0  9996
2 65459  53.1594 288.2315 0001477  99.0286 219.6171 15.45720318  4692
STARLINK-34850          
1 65460U 25195C   25272.60009123  .00132437  00000+0  23451-2 0  9998
2 65460  53.1583 289.7295 0001383  64.9802 295.1351 15.49357319  5282
STARLINK-35159          
1 65461U 25195D   25272.91670139 -.00012151  00000+0 -29424-3 0  9993
2 65461  53.1586 288.3980 0001667  89.4286 145.3095 15.39622835  4743
STARLINK-35180          
1 65462U 25195E   25272.91670139  .00119219  00000+0  29537-2 0  9999
2 65462  53.1595 288.2959 0001436  88.9037 197.3613 15.39520709  4695
STARLINK-35111          
1 65463U 25195F   25272.34102848  .00121108  00000+0  21495-2 0  9999
2 65463  53.1582 290.9558 0001602  47.4322 312.6822 15.49341449  5248
STARLINK-35107          
1 65464U 25195G   25272.91670139  .00110196  00000+0  27320-2 0  9994
2 65464  53.1593 288.4958 0001799  94.9543  90.1499 15.39544292  4748
